satname,norad_id,inclination_deg,eccentricity,mean_motion_rev_per_day,perigee_km,apogee_km,l1,l2
STARLINK-1477,45754,53.0545,0.0003227,15.07731114,540.9013925802501,545.3683814561309,1 45754U 20038AA  25323.30111460  .00027858  00000+0  18152-2 0  9997,2 45754  53.0545 352.0556 0003227  37.9811 322.1406 15.07731114299848
STARLINK-1478,45755,53.0543,0.00015,15.06391346,546.1992750666504,548.2768875910497,1 45755U 20038AB  25323.79484331 -.00001228  00000+0 -63562-4 0  9993,2 45755  53.0543 349.9535 0001500  92.5426 267.5734 15.06391346299901
STARLINK-1484,45756,53.0158,0.0003696,15.65095536,370.4688063310423,375.45922020004764,1 45756U 20038AC  25323.51253784  .00080573  00000+0  79965-3 0  9991,2 45756  53.0158 249.1536 0003696  89.2049 270.9389 15.65095536301295
STARLINK-1493,45759,53.0555,0.00019,15.063911,545.9230138820358,548.5546566994453,1 45759U 20038AF  25323.78379524 -.00000933  00000+0 -43766-4 0  9999,2 45759  53.0555 350.0044 0001900  95.6332 264.4874 15.06391100299909
STARLINK-1494,45760,53.0544,0.00047,15.53194142,404.2179154306623,410.59632690455965,1 45760U 20038AG  25323.72341470  .00033345  00000+0  52681-3 0  9990,2 45760  53.0544 329.1323 0004700  64.3291 295.8204 15.53194142300204
STARLINK-1502,45764,53.0548,0.0001527,15.06392894,546.1758328399956,548.2908409408819,1 45764U 20038AL  25323.81696660  .00007888  00000+0  54794-3 0  9998,2 45764  53.0548 349.8561 0001527  79.8557 280.2605 15.06392894299926
STARLINK-1470,45772,53.048,0.0004865,15.19086735,505.2490082813956,511.94980280398886,1 45772U 20038AU  25323.71791010  .00043090  00000+0  20314-2 0  9996,2 45772  53.0480 321.1518 0004865 346.2309  13.8552 15.19086735300314
STARLINK-1482,45773,53.055,0.0001451,15.06399759,546.2074283857337,548.217164751597,1 45773U 20038AV  25323.71560068 -.00000271  00000+0  72178-6 0  9998,2 45773  53.0550 330.3085 0001451  85.8943 274.2211 15.06399759300181
STARLINK-1496,45780,53.0546,0.0001705,15.06393257,546.0514488864474,548.4129997919472,1 45780U 20038BC  25323.74877458  .00000557  00000+0  56335-4 0  9994,2 45780  53.0546 330.1608 0001705  97.5728 262.5454 15.06393257300171
STARLINK-1497,45781,53.0381,0.0006609,15.59880435,383.5310671003763,392.4745506997797,1 45781U 20038BD  25323.91668980  .00116694  00000+0  14086-2 0  9997,2 45781  53.0381 267.7704 0006609  36.2886 143.3127 15.59880435  5828
STARLINK-1510,45784,53.0297,0.0005186,15.78712205,330.6074155160304,337.56933567559827,1 45784U 20038BG  25323.91668980  .00118822  00000+0  65845-3 0  9995,2 45784  53.0297 241.5244 0005186 119.2025  53.4217 15.78712205  5968
STARLINK-1513,45786,53.0558,0.0001326,15.06403011,546.2840296771983,548.1206296674272,1 45786U 20038BJ  25323.71191694 -.00001114  00000+0 -55929-4 0  9998,2 45786  53.0558 330.3285 0001326  86.2635 273.8505 15.06403011300187
STARLINK-1522,46027,53.0549,0.0001525,15.06397716,546.1624413555592,548.274674800773,1 46027U 20055A   25323.82525963  .00007526  00000+0  52366-3 0  9990,2 46027  53.0549 259.8167 0001525 100.2380 259.8781 15.06397716292325
STARLINK-1523,46028,53.0546,0.0001511,15.06364923,546.2726295658294,548.3655023889678,1 46028U 20055B   25323.11020222  .00004581  00000+0  32656-3 0  9999,2 46028  53.0546 263.0308 0001511  84.4370 275.6792 15.06364923292236
STARLINK-1526,46029,53.0541,0.0001689,15.06379279,546.1053634490081,548.4447676447498,1 46029U 20055C   25323.56724860  .00004028  00000+0  28932-3 0  9996,2 46029  53.0541 260.9753 0001689  72.9472 287.1702 15.06379279292298
STARLINK-1555,46032,53.0547,0.0001843,15.06382547,545.9886977883389,548.5414009837423,1 46032U 20055F   25323.81788742 -.00000995  00000+0 -47929-4 0  9996,2 46032  53.0547 259.8443 0001843 124.6705 235.4458 15.06382547292338
STARLINK-1556,46033,53.0546,0.0001564,15.06381149,546.1862005900839,548.352467691403,1 46033U 20055G   25323.79946238  .00011654  00000+0  80038-3 0  9999,2 46033  53.0546 259.9333 0001564  77.8513 282.2651 15.06381149292302
STARLINK-1557,46034,53.0539,0.0001559,15.06389748,546.16331228119,548.3226457586488,1 46034U 20055H   25323.80314885 -.00001521  00000+0 -83260-4 0  9994,2 46034  53.0539 259.9155 0001559  94.8071 265.3096 15.06389748292307
STARLINK-1558,46035,53.0545,0.0001189,15.06410265,546.3566771674814,548.0035175732364,1 46035U 20055J   25323.81051551  .00008853  00000+0  61234-3 0  9993,2 46035  53.0545 259.8853 0001189  94.9258 265.1866 15.06410265292331
STARLINK-1560,46036,53.0549,0.0001557,15.06380247,546.193812503202,548.3503848965374,1 46036U 20055K   25323.79577515  .00008968  00000+0  62048-3 0  9995,2 46036  53.0549 259.9525 0001557  81.2628 278.8538 15.06380247292335
STARLINK-1567,46038,53.0551,0.0001416,15.06375376,546.306387937454,548.2676680221775,1 46038U 20055M   25323.54144367  .00006124  00000+0  42992-3 0  9993,2 46038  53.0551 261.0923 0001416  86.1867 273.9284 15.06375376292284
STARLINK-1569,46039,53.0552,0.0001548,15.0638582,546.1829672525209,548.3270686212736,1 46039U 20055N   25323.81420350 -.00000326  00000+0 -29917-5 0  9997,2 46039  53.0552 259.8685 0001548  98.0945 262.0220 15.06385820292320
STARLINK-1582,46043,53.0537,0.00017,15.06384682,546.0811885639241,548.4358230358966,1 46043U 20055S   25323.82157443  .00008237  00000+0  57148-3 0  9995,2 46043  53.0537 259.8356 0001700  83.9221 276.1962 15.06384682292327
STARLINK-1591,46045,53.0558,0.0001471,15.06401287,546.1888952788067,548.2263316640892,1 46045U 20055U   25323.84737297  .00011103  00000+0  76310-3 0  9998,2 46045  53.0558 259.7181 0001471 100.3906 259.7249 15.06401287292311
STARLINK-1524,46047,53.0559,0.0001557,15.063761,546.20652078887,548.3630971401826,1 46047U 20055W   25323.53499672  .00001296  00000+0  10598-3 0  9996,2 46047  53.0559 251.1201 0001557  94.5731 265.5436 15.06376100292428
STARLINK-1527,46048,53.0544,0.0001574,15.06392126,546.1456370578135,548.3257443808516,1 46048U 20055X   25323.79669799  .00011867  00000+0  81442-3 0  9995,2 46048  53.0544 249.9465 0001574  80.7557 279.3610 15.06392126292447
STARLINK-1540,46051,53.0545,0.0001516,15.06389518,546.1937962331922,548.2935716565635,1 46051U 20055AA  25323.82987359  .00002546  00000+0  18980-3 0  9999,2 46051  53.0545 249.7959 0001516  75.7655 284.3502 15.06389518292488
STARLINK-1541,46052,53.0537,0.0001372,15.06382901,546.3137993939708,548.214129418604,1 46052U 20055AB  25323.81512948  .00003121  00000+0  22842-3 0  9999,2 46052  53.0537 249.8598 0001372  70.7908 289.3229 15.06382901292442
